#cP2015  5 21  0  0  0.00000000      96 ORBIT IGb08 HLM  IGS
## 1845 345600.00000000   900.00000000 57163 0.0000000000000
+   32   G01G02G03G04G05G06G07G08G09G10G11G12G13G14G15G16G17
+        G18G19G20G21G22G23G24G25G26G27G28G29G30G31G32  0  0
+          0  0  0  0  0  0  0  0  0  0  0  0  0  0  0  0  0
+          0  0  0  0  0  0  0  0  0  0  0  0  0  0  0  0  0
+          0  0  0  0  0  0  0  0  0  0  0  0  0  0  0  0  0
++         2  3  2  2  3  2  2  0  3  2  2  3  2  2  2  3  2
++         2  3  2  2  2  2  2  2  2  2  2  2  2  2  2  0  0
++         0  0  0  0  0  0  0  0  0  0  0  0  0  0  0  0  0
++         0  0  0  0  0  0  0  0  0  0  0  0  0  0  0  0  0
++         0  0  0  0  0  0  0  0  0  0  0  0  0  0  0  0  0
%c G  cc GPS ccc cccc cccc cccc cccc ccccc ccccc ccccc ccccc
%c cc cc ccc ccc cccc cccc cccc cccc ccccc ccccc ccccc ccccc
%f  1.2500000  1.025000000  0.00000000000  0.000000000000000
%f  0.0000000  0.000000000  0.00000000000  0.000000000000000
%i    0    0    0    0      0      0      0      0         0
%i    0    0    0    0      0      0      0      0         0
/* RAPID ORBIT COMBINATION FROM WEIGHTED AVERAGE OF:        
/* cod emr esa gfz jpl ngs sio usn whu                      
/* REFERENCED TO IGS TIME (IGST) AND TO WEIGHTED MEAN POLE: 
/* PCV:IGS08_1844 OL/AL:FES2004  NONE     Y  ORB:CMB CLK:CMB
*  2015  5 21  6 45  0.00000000
PG01  -4701.480011  17797.998080 -19126.367255     -5.325352  5  7  6  94       
PG02  21131.129308 -15414.232446   3242.784995    567.123681  9 10  6 106       
PG03   6065.510906  18425.255056 -18111.332070    332.358432  8  6  4  88       
PG04 -13350.063301  18856.045418 -13185.628214    -15.591827  5  7  6 100       
PG05  14073.942161  -8979.731431  20643.619744   -239.058295  4  5  5  96       
PG06  23734.321544  -4466.583991 -11046.465122    165.636927  6  8  3 109       
PG07  10277.385524  11456.179229  21782.550594    463.513339  5  8  6  74       
PG08 -23516.996816  -6273.544254  10725.000802 999999.999999
PG09   7687.825703  22768.807966  11280.132671   -159.300852  7 10  8  97       
PG10  24179.604694   8039.020474   7836.294532   -175.737041  4  7  3  89       
PG11  -6387.701985  22717.630335 -12595.961041   -579.629442  6  9  2 108       
PG12  -2763.046776 -17535.249451 -19930.068091    294.699743  7 10  4 125       
PG13  12467.680941 -18072.586780  14890.239455   -116.287680  6  7  6  96       
PG14 -14249.229666  -6005.611886 -21372.222109     61.961734  4  5  2  88       
PG15   4062.173855 -25206.753728   6600.173103   -250.421177  8  9  6 108       
PG16 -14565.090713   6799.355215  21143.363153   -127.071035  7  9  5 102       
PG17  14144.470535   6410.488641 -21283.611278   -172.184517  6  6  4  75       
PG18 -21140.474388 -15874.268119   4382.114754    403.078993  6 12  8 101       
PG19  -8327.244941  23466.509592   8345.094467   -511.048928  7 11  7 109       
PG20  10792.963327 -12140.444162  20876.029965    321.950674  4  6  6  91       
PG21 -13352.702267 -10421.931536  21224.299452   -447.991248  8  6  4 123       
PG22 -24414.318079  -7939.265954  -6922.133480    352.555724  6  9  7  74       
PG23    874.379112  26242.890483   1930.918457   -109.705870  6  8  7  66       
PG24   7457.362882 -18592.149110 -17404.892453    -48.618808  9  8  6  98       
PG25 -15216.636632 -18417.802680 -11880.884480    -31.333998  7  9  7 100       
PG26 -21655.711388   -365.697457  15366.710055     30.294433  6  9  6 107       
PG27 -12210.085184  15782.785827  17454.221777     73.429939  6  5  5 122       
PG28  22723.950078  13303.268555  -3189.367465    441.263152  2  5  5  77       
PG29  -5028.160210 -24197.055508   9825.070551    611.758536  4  9  8 114       
PG30  19601.013381   4442.375996  17386.121727    -56.567993  5  4  6  61       
PG31 -24632.147725   6802.616812  -7733.581745    315.292974  5  7  5 103       
PG32  -8596.302700  12937.657782 -21566.289571   -145.907123  8  9  4 114       
*  2015  5 21  7  0  0.00000000
PG01  -6578.984379  18743.788378 -17587.186041     -5.324935  5  7  5  99       
PG02  21464.264473 -15217.135458    411.892906    567.125620  9 10  7  98       
PG03   4114.025109  17494.346915 -19529.610270    332.366978  8  6  5  93       
PG04 -14633.810050  19335.726169 -10841.451044    -15.592956  4  7  6 106       
PG05  16062.856395  -7787.159530  19671.833799   -239.053793  4  5  5 100       
PG06  22644.774304  -3563.490246 -13409.408254    165.645143  6  8  4 102       
PG07   8124.141021  12681.388977  21980.371264    463.515465  5  9  6  68       
PG08 -24381.888270  -6961.852819   8116.754566 999999.999999
PG09   7477.672204  23921.930611   8751.582618   -159.306230  8 11  8 126       
PG10  24728.006561   8660.253515   5176.425994   -175.739352  4  7  3  96       
PG11  -7470.948724  23461.693043 -10324.812142   -579.631306  6  9  1 114       
PG12   -766.080511 -16368.689219 -21053.210441    294.702414  7 10  2 132       
PG13  12442.469970 -16233.221286  16868.119064   -116.290461  4  7  5  79       
PG14 -14052.317590  -8450.961949 -20685.756307     61.959464  4  5  1 102       
PG15   4455.336976 -24303.005598   9216.444768   -250.423468  8  9  6  65       
PG16 -16524.183713   5483.812225  20095.026875   -127.067662  7  9  5 102       
PG17  14022.910571   8853.205274 -20502.480597   -172.185735  6  7  3  59       
PG18 -20466.321995 -15873.931274   7046.471355    403.081716  7 12  8  95       
PG19  -8482.315799  22310.269764  10944.677286   -511.049728  7 11  7 110       
PG20  12935.834992 -11064.572794  20260.669254    321.953933  3  6  6  93       
PG21 -11406.923574 -11677.233212  21684.246795   -447.994918  8  6  4 126       
PG22 -24844.232104  -8551.316242  -4252.934149    352.559411  6 10  7  80       
PG23    551.248812  26289.851404   -926.311553   -109.707958  6  8  7  96       
PG24   9157.109243 -19432.585815 -15561.904464    -48.619692  9  8  6  99       
PG25 -13857.210055 -17839.198590 -14203.179291    -31.337459  8  9  7  74       
PG26 -22996.206024  -1325.049010  13217.992456     30.295477  6  9  6  81       
PG27 -12389.484835  13693.359033  19030.088051     73.432349  6  5  5 131       
PG28  22854.097494  13592.167842   -292.419117    441.265374  2  6  6  58       
PG29  -4795.673538 -25156.092284   7171.948025    611.760604  4  9  8 112       
PG30  17809.199639   5507.159008  18933.144881    -56.563077  5  5  5  76       
PG31 -23809.121895   6143.684029 -10343.686837    315.291944  5  6  5 110       
PG32 -10624.722964  11542.002975 -21405.609801   -145.898370  8  9  5 123       
*  2015  5 21  7 15  0.00000000
PG01  -8247.414829  19679.275905 -15744.384192     -5.324468  5  7  5  97       
PG02  21546.918449 -14843.217633  -2426.252579    567.127776  9 10  7  92       
PG03   1989.530642  16604.505765 -20611.073219    332.375542  8  6  5 107       
PG04 -15671.720788  19718.080252  -8310.758801    -15.594445  4  7  7  97       
PG05  17990.712213  -6751.395881  18361.675513   -239.049713  5  5  5  99       
PG06  21394.180544  -2460.506198 -15541.506094    165.653351  6  8  5  72       
PG07   6035.975678  14023.508953  21803.578410    463.518016  6  9  6 102       
PG08 -25012.674466  -7462.715413   5369.783324 999999.999999
PG09   7303.510931  24790.411196   6072.194055   -159.311605  9 11  9  84       
PG10  25034.405486   9115.800270   2428.880629   -175.742096  3  7  2  73       
PG11  -8372.703895  24039.149943  -7878.762663   -579.633605  7  9     95       
PG12   1389.664938 -15267.224798 -21818.887658    294.705568  7 10    112       
PG13  12510.710153 -14185.306747  18554.115467   -116.293618  3  7  5  82       
PG14 -13984.466400 -10801.784172 -19636.711911     61.956925  3  5  2  87       
PG15   4925.548543 -23132.710115  11670.662962   -250.425034  7  8  5  71       
PG16 -18431.460873   4351.774973  18701.985931   -127.064345  7  9  5 113       
PG17  14028.680041  11185.803418 -19360.884998   -172.187160  6  7  2  86       
PG18 -19532.457748 -15782.556243   9593.354332    403.084281  7 11  8 101       
PG19  -8692.866265  20876.210447  13349.339626   -511.050803  7 10  7 122       
PG20  15041.638689 -10122.793010  19292.804665    321.956794  4  6  6  96       
PG21  -9498.619398 -13047.523405  21794.491391   -447.998027  8  7  4 129       
PG22 -25026.208820  -9013.529973  -1510.975585    352.562944  7 10  7  93       
PG23    206.592917  26027.839252  -3767.127458   -109.710045  7  8  7  91       
PG24  10630.278062 -20229.057231 -13450.097434    -48.619581  9  8  7  81       
PG25 -12243.811583 -17229.567283 -16284.399109    -31.341025  8  9  7  98       
PG26 -24153.450331  -2103.100396  10841.723151     30.296514  6  9  6 126       
PG27 -12691.966583  11457.439162  20276.895559     73.434800  6  5  5 126       
PG28  22716.626998  13706.667624   2609.608532    441.267747  3  7  6  80       
PG29  -4608.104773 -25819.133917   4395.861091    611.762902  5  9  8 112       
PG30  15938.618935   6741.559071  20154.724563    -56.558092  5  5  5  91       
PG31 -22783.297246   5285.191526 -12778.052718    315.290852  5  5  5 103       
PG32 -12690.934057  10265.816995 -20875.719058   -145.889488  7  9  5 116       
EOF
